[
  {
    "OBJECT_NAME": "RESOURCESAT-2",
    "OBJECT_ID": "2011-015A",
    "EPOCH": "2025-05-06T04:53:14.303328",
    "MEAN_MOTION": 14.2159187,
    "ECCENTRICITY": 0.0004993,
    "INCLINATION": 98.8104,
    "RA_OF_ASC_NODE": 190.3924,
    "ARG_OF_PERICENTER": 317.4078,
    "MEAN_ANOMALY": 42.6711,
    "EPHEMERIS_TYPE": 0,
    "CLASSIFICATION_TYPE": "U",
    "NORAD_CAT_ID": 37387,
    "ELEMENT_SET_NO": 999,
    "REV_AT_EPOCH": 72888,
    "BSTAR": 0.00013026,
    "MEAN_MOTION_DOT": 2.41e-06,
    "MEAN_MOTION_DDOT": 0
  },
  {
    "OBJECT_NAME": "HAIYANG-2A",
    "OBJECT_ID": "2011-043A",
    "EPOCH": "2025-05-06T06:07:11.318304",
    "MEAN_MOTION": 13.78813383,
    "ECCENTRICITY": 5.14e-05,
    "INCLINATION": 99.3332,
    "RA_OF_ASC_NODE": 130.5822,
    "ARG_OF_PERICENTER": 37.5023,
    "MEAN_ANOMALY": 322.6164,
    "EPHEMERIS_TYPE": 0,
    "CLASSIFICATION_TYPE": "U",
    "NORAD_CAT_ID": 37781,
    "ELEMENT_SET_NO": 999,
    "REV_AT_EPOCH": 69085,
    "BSTAR": 5.6903e-05,
    "MEAN_MOTION_DOT": 1.4e-07,
    "MEAN_MOTION_DDOT": 0
  },
  {
    "OBJECT_NAME": "RASAT",
    "OBJECT_ID": "2011-044D",
    "EPOCH": "2025-05-06T05:13:23.358144",
    "MEAN_MOTION": 14.67544957,
    "ECCENTRICITY": 0.0021673,
    "INCLINATION": 98.0659,
    "RA_OF_ASC_NODE": 218.7647,
    "ARG_OF_PERICENTER": 44.9959,
    "MEAN_ANOMALY": 7.7633,
    "EPHEMERIS_TYPE": 0,
    "CLASSIFICATION_TYPE": "U",
    "NORAD_CAT_ID": 37791,
    "ELEMENT_SET_NO": 999,
    "REV_AT_EPOCH": 73350,
    "BSTAR": 0.0001646,
    "MEAN_MOTION_DOT": 8.88e-06,
    "MEAN_MOTION_DDOT": 0
  },
  {
    "OBJECT_NAME": "SRMSAT",
    "OBJECT_ID": "2011-058D",
    "EPOCH": "2025-05-05T21:22:39.330336",
    "MEAN_MOTION": 14.11424283,
    "ECCENTRICITY": 0.0011743,
    "INCLINATION": 19.9735,
    "RA_OF_ASC_NODE": 4.4651,
    "ARG_OF_PERICENTER": 43.7963,
    "MEAN_ANOMALY": 50.3282,
    "EPHEMERIS_TYPE": 0,
    "CLASSIFICATION_TYPE": "U",
    "NORAD_CAT_ID": 37841,
    "ELEMENT_SET_NO": 999,
    "REV_AT_EPOCH": 70020,
    "BSTAR": 0.00013496,
    "MEAN_MOTION_DOT": 5.13e-06,
    "MEAN_MOTION_DDOT": 0
  },
  {
    "OBJECT_NAME": "PLEIADES 1A",
    "OBJECT_ID": "2011-076F",
    "EPOCH": "2025-05-06T04:11:40.970400",
    "MEAN_MOTION": 14.58592205,
    "ECCENTRICITY": 0.0001154,
    "INCLINATION": 98.1987,
    "RA_OF_ASC_NODE": 202.0665,
    "ARG_OF_PERICENTER": 83.6337,
    "MEAN_ANOMALY": 306.2372,
    "EPHEMERIS_TYPE": 0,
    "CLASSIFICATION_TYPE": "U",
    "NORAD_CAT_ID": 38012,
    "ELEMENT_SET_NO": 999,
    "REV_AT_EPOCH": 71267,
    "BSTAR": 0.00012899,
    "MEAN_MOTION_DOT": 5.54e-06,
    "MEAN_MOTION_DDOT": 0
  },
  {
    "OBJECT_NAME": "ZIYUAN 1-02C (ZY 1-02C)",
    "OBJECT_ID": "2011-079A",
    "EPOCH": "2025-05-06T03:45:28.798848",
    "MEAN_MOTION": 14.37731063,
    "ECCENTRICITY": 0.0007727,
    "INCLINATION": 98.4545,
    "RA_OF_ASC_NODE": 195.9457,
    "ARG_OF_PERICENTER": 87.1429,
    "MEAN_ANOMALY": 326.4867,
    "EPHEMERIS_TYPE": 0,
    "CLASSIFICATION_TYPE": "U",
    "NORAD_CAT_ID": 38038,
    "ELEMENT_SET_NO": 999,
    "REV_AT_EPOCH": 70076,
    "BSTAR": 0.00023178,
    "MEAN_MOTION_DOT": 6.54e-06,
    "MEAN_MOTION_DDOT": 0
  },
  {
    "OBJECT_NAME": "ZIYUAN 3-1 (ZY 3-1)",
    "OBJECT_ID": "2012-001A",
    "EPOCH": "2025-05-06T04:08:48.699168",
    "MEAN_MOTION": 15.5146807,
    "ECCENTRICITY": 0.0005094,
    "INCLINATION": 97.1991,
    "RA_OF_ASC_NODE": 190.711,
    "ARG_OF_PERICENTER": 76.5766,
    "MEAN_ANOMALY": 283.6054,
    "EPHEMERIS_TYPE": 0,
    "CLASSIFICATION_TYPE": "U",
    "NORAD_CAT_ID": 38046,
    "ELEMENT_SET_NO": 999,
    "REV_AT_EPOCH": 74069,
    "BSTAR": 0.00037076,
    "MEAN_MOTION_DOT": 0.0002183,
    "MEAN_MOTION_DDOT": 0
  },
  {
    "OBJECT_NAME": "ARIRANG-3 (KOMPSAT-3)",
    "OBJECT_ID": "2012-025B",
    "EPOCH": "2025-05-06T04:25:03.381024",
    "MEAN_MOTION": 14.62456805,
    "ECCENTRICITY": 0.0005921,
    "INCLINATION": 98.3038,
    "RA_OF_ASC_NODE": 79.5436,
    "ARG_OF_PERICENTER": 307.6235,
    "MEAN_ANOMALY": 52.4428,
    "EPHEMERIS_TYPE": 0,
    "CLASSIFICATION_TYPE": "U",
    "NORAD_CAT_ID": 38338,
    "ELEMENT_SET_NO": 999,
    "REV_AT_EPOCH": 69197,
    "BSTAR": 0.00018603,
    "MEAN_MOTION_DOT": 8.94e-06,
    "MEAN_MOTION_DDOT": 0
  },
  {
    "OBJECT_NAME": "EXACTVIEW-1 (ADS-1B)",
    "OBJECT_ID": "2012-039C",
    "EPOCH": "2025-05-05T19:46:33.465216",
    "MEAN_MOTION": 14.24803463,
    "ECCENTRICITY": 0.0009842,
    "INCLINATION": 98.9492,
    "RA_OF_ASC_NODE": 229.7832,
    "ARG_OF_PERICENTER": 264.6632,
    "MEAN_ANOMALY": 95.3423,
    "EPHEMERIS_TYPE": 0,
    "CLASSIFICATION_TYPE": "U",
    "NORAD_CAT_ID": 38709,
    "ELEMENT_SET_NO": 999,
    "REV_AT_EPOCH": 66469,
    "BSTAR": 0.00011501,
    "MEAN_MOTION_DOT": 2.22e-06,
    "MEAN_MOTION_DDOT": 0
  },
  {
    "OBJECT_NAME": "SPOT 6",
    "OBJECT_ID": "2012-047A",
    "EPOCH": "2025-05-06T04:27:14.690880",
    "MEAN_MOTION": 14.58590494,
    "ECCENTRICITY": 0.0001144,
    "INCLINATION": 98.1788,
    "RA_OF_ASC_NODE": 194.6752,
    "ARG_OF_PERICENTER": 106.8124,
    "MEAN_ANOMALY": 253.32,
    "EPHEMERIS_TYPE": 0,
    "CLASSIFICATION_TYPE": "U",
    "NORAD_CAT_ID": 38755,
    "ELEMENT_SET_NO": 999,
    "REV_AT_EPOCH": 67375,
    "BSTAR": 0.00014714,
    "MEAN_MOTION_DOT": 6.39e-06,
    "MEAN_MOTION_DDOT": 0
  },
  {
    "OBJECT_NAME": "PLEIADES 1B",
    "OBJECT_ID": "2012-068A",
    "EPOCH": "2025-05-06T04:52:59.464992",
    "MEAN_MOTION": 14.58569498,
    "ECCENTRICITY": 0.0001238,
    "INCLINATION": 98.1959,
    "RA_OF_ASC_NODE": 202.0519,
    "ARG_OF_PERICENTER": 93.4043,
    "MEAN_ANOMALY": 266.7298,
    "EPHEMERIS_TYPE": 0,
    "CLASSIFICATION_TYPE": "U",
    "NORAD_CAT_ID": 39019,
    "ELEMENT_SET_NO": 999,
    "REV_AT_EPOCH": 66152,
    "BSTAR": 0.00013786,
    "MEAN_MOTION_DOT": 5.95e-06,
    "MEAN_MOTION_DDOT": 0
  },
  {
    "OBJECT_NAME": "GOKTURK 2",
    "OBJECT_ID": "2012-073A",
    "EPOCH": "2025-05-06T04:34:19.866144",
    "MEAN_MOTION": 14.74961353,
    "ECCENTRICITY": 0.0001186,
    "INCLINATION": 97.7144,
    "RA_OF_ASC_NODE": 338.4442,
    "ARG_OF_PERICENTER": 112.4007,
    "MEAN_ANOMALY": 247.7328,
    "EPHEMERIS_TYPE": 0,
    "CLASSIFICATION_TYPE": "U",
    "NORAD_CAT_ID": 39030,
    "ELEMENT_SET_NO": 999,
    "REV_AT_EPOCH": 66453,
    "BSTAR": 0.00012933,
    "MEAN_MOTION_DOT": 8.22e-06,
    "MEAN_MOTION_DDOT": 0
  },
  {
    "OBJECT_NAME": "LANDSAT 8",
    "OBJECT_ID": "2013-008A",
    "EPOCH": "2025-05-06T03:47:24.066816",
    "MEAN_MOTION": 14.57120577,
    "ECCENTRICITY": 0.0001263,
    "INCLINATION": 98.1877,
    "RA_OF_ASC_NODE": 197.1707,
    "ARG_OF_PERICENTER": 97.794,
    "MEAN_ANOMALY": 262.3402,
    "EPHEMERIS_TYPE": 0,
    "CLASSIFICATION_TYPE": "U",
    "NORAD_CAT_ID": 39084,
    "ELEMENT_SET_NO": 999,
    "REV_AT_EPOCH": 65044,
    "BSTAR": 0.00013543,
    "MEAN_MOTION_DOT": 5.65e-06,
    "MEAN_MOTION_DDOT": 0
  },
  {
    "OBJECT_NAME": "SARAL",
    "OBJECT_ID": "2013-009A",
    "EPOCH": "2025-05-05T21:37:04.876032",
    "MEAN_MOTION": 14.3269456,
    "ECCENTRICITY": 0.0003034,
    "INCLINATION": 98.5543,
    "RA_OF_ASC_NODE": 312.6993,
    "ARG_OF_PERICENTER": 67.1814,
    "MEAN_ANOMALY": 292.969,
    "EPHEMERIS_TYPE": 0,
    "CLASSIFICATION_TYPE": "U",
    "NORAD_CAT_ID": 39086,
    "ELEMENT_SET_NO": 999,
    "REV_AT_EPOCH": 63728,
    "BSTAR": 8.9194e-05,
    "MEAN_MOTION_DOT": 1.99e-06,
    "MEAN_MOTION_DDOT": 0
  }
]