RESOURCESAT-2           
1 37387U 11015A   25126.20363777  .00000241  00000+0  13026-3 0  9998
2 37387  98.8104 190.3924 0004993 317.4078  42.6711 14.21591870728885
HAIYANG-2A              
1 37781U 11043A   25126.25499211  .00000014  00000+0  56903-4 0  9995
2 37781  99.3332 130.5822 0000514  37.5023 322.6164 13.78813383690855
RASAT                   
1 37791U 11044D   25126.21763146  .00000888  00000+0  16460-3 0  9996
2 37791  98.0659 218.7647 0021673  44.9959   7.7633 14.67544957733506
SRMSAT                  
1 37841U 11058D   25125.89073299  .00000513  00000+0  13496-3 0  9994
2 37841  19.9735   4.4651 0011743  43.7963  50.3282 14.11424283700206
PLEIADES 1A             
1 38012U 11076F   25126.17477975  .00000554  00000+0  12899-3 0  9997
2 38012  98.1987 202.0665 0001154  83.6337 306.2372 14.58592205712677
ZIYUAN 1-02C (ZY 1-02C) 
1 38038U 11079A   25126.15658332  .00000654  00000+0  23178-3 0  9997
2 38038  98.4545 195.9457 0007727  87.1429 326.4867 14.37731063700764
ZIYUAN 3-1 (ZY 3-1)     
1 38046U 12001A   25126.17278587  .00021830  00000+0  37076-3 0  9995
2 38046  97.1991 190.7110 0005094  76.5766 283.6054 15.51468070740694
ARIRANG-3 (KOMPSAT-3)   
1 38338U 12025B   25126.18406691  .00000894  00000+0  18603-3 0  9997
2 38338  98.3038  79.5436 0005921 307.6235  52.4428 14.62456805691973
EXACTVIEW-1 (ADS-1B)    
1 38709U 12039C   25125.82399844  .00000222  00000+0  11501-3 0  9990
2 38709  98.9492 229.7832 0009842 264.6632  95.3423 14.24803463664697
SPOT 6                  
1 38755U 12047A   25126.18558670  .00000639  00000+0  14714-3 0  9995
2 38755  98.1788 194.6752 0001144 106.8124 253.3200 14.58590494673759
PLEIADES 1B             
1 39019U 12068A   25126.20346603  .00000595  00000+0  13786-3 0  9995
2 39019  98.1959 202.0519 0001238  93.4043 266.7298 14.58569498661520
GOKTURK 2               
1 39030U 12073A   25126.19050771  .00000822  00000+0  12933-3 0  9996
2 39030  97.7144 338.4442 0001186 112.4007 247.7328 14.74961353664538
LANDSAT 8               
1 39084U 13008A   25126.15791744  .00000565  00000+0  13543-3 0  9994
2 39084  98.1877 197.1707 0001263  97.7940 262.3402 14.57120577650443
SARAL                   
1 39086U 13009A   25125.90075088  .00000199  00000+0  89194-4 0  9994
2 39086  98.5543 312.6993 0003034  67.1814 292.9690 14.32694560637285
